GLOBALSTAR M024 [-]     
1 25883U 99043A   23324.49747358 -.00000053  00000+0  40701-3 0  9995
2 25883  52.0020 237.3054 0000461 228.1435 302.4335 11.10158765 51031
GLOBALSTAR M027 [-]     
1 25884U 99043B   23324.28826304 -.00000046  00000+0  65685-3 0  9992
2 25884  52.0224 299.4775 0021144 141.9736 218.2554 11.04365505 77720
GLOBALSTAR M053 [-]     
1 25886U 99043D   23324.59028269 -.00000069  00000+0 -12998-4 0  9998
2 25886  51.9986  77.7411 0003842 175.1010 278.2055 11.27652223 54625
GLOBALSTAR M058 [-]     
1 25907U 99049A   23324.38530290 -.00000071  00000+0  18180-3 0  9997
2 25907  51.9927 204.0069 0001509 235.3980 124.6713 11.93169876472923
GLOBALSTAR M050 [-]     
1 25908U 99049B   23324.56769543 -.00000037  00000+0  58048-3 0  9992
2 25908  51.9996 254.1234 0009111 332.4147 199.1508 12.07423608 83504
GLOBALSTAR M033 [-]     
1 25909U 99049C   23324.50329555 -.00000114  00000+0 -21858-3 0  9998
2 25909  51.9885 165.8267 0011790 166.3435 193.7733 12.20259297465584
GLOBALSTAR M055 [-]     
1 25910U 99049D   23324.37238993 -.00000081  00000+0  11065-3 0  9991
2 25910  52.0008 204.9146 0007688  24.6892 335.4326 12.29390966 97582
